[{"OBJECT_NAME":"AETHER-9","OBJECT_ID":"2026-004T","EPOCH":"2026-03-09T23:31:56.232480","MEAN_MOTION":14.87919538,"ECCENTRICITY":0.00064611,"INCLINATION":97.8002,"RA_OF_ASC_NODE":69.182,"ARG_OF_PERICENTER":98.1292,"MEAN_ANOMALY":262.0657,"EPHEMERIS_TYPE":0,"CLASSIFICATION_TYPE":"U","NORAD_CAT_ID":67380,"ELEMENT_SET_NO":999,"REV_AT_EPOCH":853,"BSTAR":0.00014996524,"MEAN_MOTION_DOT":1.32e-5,"MEAN_MOTION_DDOT":0},{"OBJECT_NAME":"PSLV DEB","OBJECT_ID":"2001-049MY","EPOCH":"2026-03-09T07:57:53.570592","MEAN_MOTION":14.77978175,"ECCENTRICITY":0.00417715,"INCLINATION":98.2673,"RA_OF_ASC_NODE":104.3849,"ARG_OF_PERICENTER":290.7351,"MEAN_ANOMALY":68.9384,"EPHEMERIS_TYPE":0,"CLASSIFICATION_TYPE":"U","NORAD_CAT_ID":27580,"ELEMENT_SET_NO":999,"REV_AT_EPOCH":26612,"BSTAR":0.00014387879,"MEAN_MOTION_DOT":9.94e-6,"MEAN_MOTION_DDOT":0}]
